{"type":"FeatureCollection","features":[{"type":"Feature","geometry":{"type":"Polygon","coordinates":[[[144.96735490255327,-37.831044866987853],[144.96830284167197,-37.830769736985026],[144.96941485178917,-37.83044807664519],[144.97022077175302,-37.830214196507718],[144.97041133227256,-37.830158906596481],[144.97132142177512,-37.829895017069404],[144.97133073191475,-37.830160476760703],[144.97134570233894,-37.830438476898031],[144.97136270205741,-37.830688466535833],[144.97136771196173,-37.830755476491106],[144.97139574209351,-37.83107246691759],[144.97141771219046,-37.831228466634862],[144.97144874179699,-37.831383476970039],[144.9714867719745,-37.831537466711119],[144.97153374218581,-37.831689466682533],[144.97158849180744,-37.831840456719036],[144.97165076212457,-37.831989457006358],[144.97172172184548,-37.832135466452804],[144.97179976208756,-37.832280466704134],[144.97183173223019,-37.832326476926411],[144.97192276211118,-37.832441466527015],[144.97206869253074,-37.832615406475192],[144.97212676232562,-37.832683466860175],[144.97225666230898,-37.832810306565527],[144.97237262223578,-37.832942786511602],[144.97250256174499,-37.833066897070893],[144.97264513246537,-37.833182006840154],[144.97281468228877,-37.833297647127026],[144.97341875170662,-37.833721377113733],[144.97347058180355,-37.833762056795578],[144.97364702170518,-37.833880307069386],[144.97401600201317,-37.834127546451654],[144.97411214240981,-37.834197566443272],[144.97419854237384,-37.834278646434186],[144.97444623215219,-37.83456502699466],[144.97454448179315,-37.834678526756228],[144.97487390209267,-37.835059126449892],[144.97493076185691,-37.835129706748553],[144.97498117171736,-37.835207096471812],[144.97504807195153,-37.835321236605338],[144.97519608197101,-37.835572596705553],[144.97534902194474,-37.835833006580209],[144.97543008232273,-37.835970387031885],[144.97548228252555,-37.836078826880531],[144.97553772205333,-37.836217796774633],[144.97577839239605,-37.836877606659897],[144.97580602187924,-37.836953346490056],[144.97581292183895,-37.836972256959299],[144.9758779418992,-37.837150516715297],[144.97606989211246,-37.837677266725855],[144.97626126201405,-37.838202406800427],[144.97635200173926,-37.838451996966057],[144.97645201207811,-37.838724996970569],[144.97658100206809,-37.839079876594973],[144.97680099229467,-37.839683996435703],[144.97689986177315,-37.839954526631367],[144.97699863243693,-37.840225546754539],[144.97709025251109,-37.840476856800706],[144.97729001177913,-37.841024986787843],[144.97740612172456,-37.841343296576625],[144.97754770250157,-37.841731556822999],[144.97773199188211,-37.842234996506349],[144.97782397218063,-37.842489067074496],[144.97792402204544,-37.842763986663066],[144.97800921197879,-37.842996946655923],[144.97814232254095,-37.843361906751731],[144.9782619520856,-37.843689726446115],[144.97827299238048,-37.843719996747275],[144.9782943821657,-37.84377868652053],[144.97839359210568,-37.844050946783923],[144.97857901246516,-37.84455798705379],[144.97868555175953,-37.844851766944636],[144.97909487181369,-37.845974386682549],[144.97942384205723,-37.846877386726014],[144.97951199193946,-37.8471189970819],[144.9795350220484,-37.847181997026752],[144.97973183214737,-37.847720396688452],[144.9801503725096,-37.848869156571013],[144.98034119174392,-37.849392506756146],[144.98044099187706,-37.849667006930723],[144.98064254238574,-37.850219356486377],[144.98234964236121,-37.850434196671401],[144.98303088245186,-37.850519746698673],[144.98320334191843,-37.850541486723195],[144.98322263234084,-37.850543926792106],[144.98420180228877,-37.850667376440605],[144.98433203195378,-37.849848977006552],[144.98457195220323,-37.848341426731118],[144.98472879176367,-37.847415336754274],[144.98475682189545,-37.84725634658222],[144.98478978198153,-37.84705833653895],[144.98494782169118,-37.846129346879735],[144.9850233816847,-37.845687597130748],[144.98524278171806,-37.84461731672971],[144.98529578231987,-37.844357316676827],[144.98541374189645,-37.843780306761388],[144.98542907254506,-37.843706607047721],[144.9855588018485,-37.843075307089379],[144.98557577192253,-37.842988306934359],[144.98569837219586,-37.842390366791228],[144.98584488202886,-37.841675837129394],[144.98588277206917,-37.841493297092136],[144.98598070190988,-37.84101229679068],[144.98609071229458,-37.840474296506834],[144.98615670253534,-37.840145296939234],[144.98632245248498,-37.839324546730467],[144.98633245253075,-37.839275906756392],[144.98646184227101,-37.838632696446972],[144.98652459228859,-37.838321106835991],[144.98660062210092,-37.837953846611654],[144.9866362825228,-37.837781926979723],[144.98674205196096,-37.837272576979935],[144.98677512253983,-37.837113296768798],[144.98685466207004,-37.836729327118988],[144.98699463216772,-37.836052317137941],[144.98702066175142,-37.835929796541137],[144.98710869215765,-37.835504536857499],[144.98711388172507,-37.835479316720011],[144.98722050186785,-37.83496483694563],[144.9872625421248,-37.834761597003073],[144.98738208183795,-37.834146266795152],[144.9874393117081,-37.833851556699251],[144.98752428245251,-37.83341564698673],[144.98759268197489,-37.833062476945251],[144.98770354216575,-37.832490907062073],[144.98775285248837,-37.83225003703761],[144.98785950227551,-37.831729166951163],[144.98792495173049,-37.831407656952322],[144.98793757216191,-37.831326756859056],[144.98794476227741,-37.831248906851719],[144.98794765215769,-37.831170776506326],[144.98794546206503,-37.831092746828546],[144.98793900227983,-37.831014806466513],[144.98792962207159,-37.830950906532692],[144.98792677171721,-37.830931206962745],[144.98791093172386,-37.830854156867325],[144.98789042228759,-37.830777746671657],[144.98787151185255,-37.83072032651517],[144.98784552179475,-37.830633316754259],[144.98781698231815,-37.830489106503812],[144.98780866212198,-37.830411536581011],[144.98780544166169,-37.830328106677726],[144.98780763175435,-37.830252866641217],[144.98782165176098,-37.830123437052933],[144.98782753213288,-37.830084317016485],[144.98792049249343,-37.829672316554131],[144.98792984215888,-37.829622107135378],[144.98799649176306,-37.82926431694284],[144.98805576170722,-37.828941676564916],[144.98813248232406,-37.828552326561201],[144.98824447169721,-37.827965326861744],[144.98833243203495,-37.827508316726387],[144.98835448208192,-37.827374317110269],[144.98845343240873,-37.826798306786529],[144.98870842189709,-37.825301307019537],[144.98872043237239,-37.825245306699706],[144.98884339197193,-37.824629306763022],[144.98894238182459,-37.824043287004777],[144.98904889237292,-37.823405476508889],[144.98909711214074,-37.823119286797159],[144.98914930246215,-37.822807076767006],[144.98934228214475,-37.821656526544338],[144.98957161215529,-37.820289506775318],[144.98969293232938,-37.819566447011368],[144.98972410207304,-37.819381157123274],[144.98972878229574,-37.819341937012304],[144.98977509224522,-37.819068927022776],[144.98988624169363,-37.818418416557165],[144.98997373221243,-37.817899726770129],[144.99000756186769,-37.817698856850761],[144.99001326167823,-37.817554886728914],[144.9900222717805,-37.817286257137994],[144.99007874167592,-37.816963946891271],[144.9900946921621,-37.816875626516016],[144.99020160246067,-37.816269216506939],[144.99028478196436,-37.815796166674126],[144.99045684168061,-37.81481957706125],[144.99048097222581,-37.814681786783787],[144.99064080227785,-37.81377495709048],[144.99067858182536,-37.813559226646341],[144.99079917166912,-37.81287522658873],[144.99087816232873,-37.812426226949896],[144.99094799196902,-37.812030996596327],[144.99094955234264,-37.812020286623074],[144.99108413165033,-37.811257216723348],[144.99113815183992,-37.810946207017182],[144.99119513197843,-37.81062421684662],[144.99135105166394,-37.809731237081444],[144.99042947181061,-37.809736916928792],[144.99021565211174,-37.809738176672454],[144.98943984187952,-37.809655556604774],[144.98900571215384,-37.809609286686339],[144.98853840225485,-37.809559527063179],[144.98796853169989,-37.809498766793304],[144.98762904218432,-37.809462606701416],[144.98700810240541,-37.809396517079357],[144.98639027169574,-37.809330566502979],[144.98562563201409,-37.809249117016293],[144.98530169233609,-37.809219897151635],[144.98475229169148,-37.809156057125797],[144.98461983240784,-37.809142086989475],[144.98378530200054,-37.809053017017455],[144.98331317174168,-37.809008926986721],[144.98255328235132,-37.808921196810303],[144.98205096241074,-37.808867786617668],[144.9813672824958,-37.808795216685219],[144.98115832178422,-37.808773196791371],[144.98017534208128,-37.808668227116222],[144.97901230226603,-37.808544226695695],[144.97856131206083,-37.808496237122917],[144.97790635218379,-37.808426246684228],[144.97678620243184,-37.808306727083206],[144.97620191211988,-37.808244356826577],[144.97587396236244,-37.808209426791286],[144.97569106177735,-37.808189917036437],[144.97472863193479,-37.808087296450196],[144.97404115214616,-37.808014056474079],[144.97318800235794,-37.80792295672687],[144.9733843722824,-37.806766266612364],[144.97356139249567,-37.80573150686363],[144.97361965183509,-37.805381726861086],[144.9738341919828,-37.804117416660816],[144.97400319203723,-37.803121206906496],[144.97407527195728,-37.802696206744493],[144.97432526232106,-37.80122201654472],[144.97441721207696,-37.800676196572496],[144.97444272243439,-37.800525566534091],[144.97453656224559,-37.799969936829676],[144.97462080176135,-37.799470437141117],[144.97475220193127,-37.798692566981003],[144.97475950253951,-37.798649206849504],[144.97487711177317,-37.797952146972499],[144.97501322181006,-37.797162746581897],[144.97507800202015,-37.796787806923525],[144.97515071165921,-37.796365807029055],[144.97528824193265,-37.795568496855104],[144.97531201225337,-37.795429886977878],[144.97538712219088,-37.794987106798892],[144.97544008236844,-37.79467510646495],[144.97549377197802,-37.794357886614058],[144.97554790176213,-37.794038337041933],[144.97560072180252,-37.793726376713103],[144.97561036252216,-37.793669356495265],[144.97571555164862,-37.793047057018491],[144.97475549246008,-37.792944066842566],[144.97373163222514,-37.792834186455536],[144.97258637186607,-37.792711646645436],[144.97134876200082,-37.792578876557442],[144.97081653175454,-37.792521566532777],[144.97031583237472,-37.792467656792326],[144.96987099203594,-37.792419756866636],[144.96969765222042,-37.792401067113083],[144.96924206174259,-37.792351966734124],[144.96890374183354,-37.792315527071963],[144.96838993244046,-37.792260176829167],[144.96851910209347,-37.791498306917553],[144.96862904240953,-37.790850126929413],[144.96874456216179,-37.790170156785166],[144.96886873179199,-37.789438946921059],[144.96902594235658,-37.788514086975361],[144.96914161212749,-37.787833436523798],[144.96923289174015,-37.78729207680248],[144.96939320239085,-37.786350126593923],[144.96950015221529,-37.78572140649203],[144.96951745197106,-37.785619806829821],[144.96798989198319,-37.785461076823481],[144.96721897217938,-37.785381156512472],[144.96568276231372,-37.785221796977588],[144.96427776217507,-37.785075887135456],[144.96358693167042,-37.785004106722653],[144.96378888192942,-37.783740096655045],[144.96399887211027,-37.782430086864949],[144.96383889203963,-37.782302087107439],[144.96374289178016,-37.782259076605918],[144.96361989175651,-37.782190086516508],[144.96353086242365,-37.782133066626187],[144.963446882521,-37.78207307684324],[144.96334190180369,-37.781988087151689],[144.96324292183235,-37.781897086652897],[144.96315291243752,-37.781801066461242],[144.96309144251927,-37.781725407065849],[144.96301691199508,-37.781621067048576],[144.96295190181633,-37.781513066906598],[144.96289631226986,-37.781401856755593],[144.96286091235947,-37.781316056906078],[144.96282324240639,-37.781200617054708],[144.96279491223726,-37.781083066932581],[144.96278090211212,-37.780992066739557],[144.96277192165419,-37.780874056920894],[144.96277291249592,-37.780754066742766],[144.96283189228421,-37.780113036637196],[144.96283685188294,-37.780032046962916],[144.96283587182097,-37.779951046549911],[144.96282988185467,-37.77987003681811],[144.96280590222648,-37.779698046511484],[144.96277896175104,-37.779577837162932],[144.96275188203683,-37.779489046783546],[144.96271987236833,-37.779401046534502],[144.9626808522473,-37.779314036640521],[144.96263687252764,-37.779229046616571],[144.96258789188676,-37.779146046649245],[144.96251591167967,-37.779043037099129],[144.96242991236429,-37.778936047085601],[144.96231290230693,-37.778815037024515],[144.9621839024355,-37.77870104666372],[144.96207229215136,-37.778617256568239],[144.96147288229486,-37.778195606598672],[144.96023375248015,-37.778044217157834],[144.95990149170774,-37.778005886758358],[144.95926095248598,-37.777928616702269],[144.95809499224777,-37.777787806749089],[144.95645968203655,-37.777590397016837],[144.95512539188718,-37.777429256981748],[144.95417993211865,-37.777315156560043],[144.9531466117254,-37.777190356559238],[144.95239771232417,-37.777099906816133],[144.95166705231648,-37.777011676513602],[144.95029633188909,-37.776846136576566],[144.94965320192603,-37.776768146756375],[144.94943318205509,-37.77674216669876],[144.94940427247255,-37.776738326846896],[144.9479054325227,-37.776557526968638],[144.94704987165619,-37.776454236898005],[144.94513643225326,-37.776222796521282],[144.94309732213534,-37.77597623655862],[144.9427162621817,-37.775930186957254],[144.94219899247821,-37.775866987018993],[144.94080775183471,-37.775699496874196],[144.9406040121317,-37.775674996878642],[144.93981900225265,-37.775579996746671],[144.93917920234432,-37.775502576465861],[144.93876875220957,-37.775448096925324],[144.93863735203968,-37.775626986662409],[144.93861465251078,-37.775710356962378],[144.93858914215332,-37.775792496667471],[144.9385349324192,-37.776009697144495],[144.93849285173803,-37.77612343675181],[144.93840529204897,-37.776211257003112],[144.93836426239665,-37.776287167004966],[144.93834404221795,-37.776315046568435],[144.93829513164573,-37.776382516985663],[144.93823841201865,-37.776482837083236],[144.93821257197953,-37.776595596826901],[144.93813654216711,-37.776749886873688],[144.9380365318282,-37.77686341659323],[144.93792673164938,-37.776973236944208],[144.93784300237664,-37.777049996778153],[144.93778632227551,-37.777101297051594],[144.93770496186022,-37.777167076885313],[144.93766967244264,-37.777180486466918],[144.93773234251006,-37.777350156586159],[144.93782304181107,-37.777587476689646],[144.93795732197975,-37.777894366731879],[144.93733704246259,-37.777818406548768],[144.93707417205422,-37.777774216932116],[144.93772478228865,-37.779143206614521],[144.93873317173782,-37.780857166917492],[144.93896322219726,-37.78157159670414],[144.93902874172082,-37.781774966765248],[144.93916043204649,-37.782588227001476],[144.93928395219467,-37.783401466929931],[144.93949799198083,-37.784344817132123],[144.9396296823065,-37.784943366719858],[144.93990135171305,-37.785554946800104],[144.94017294206785,-37.786101426568813],[144.94026354165587,-37.786446256595632],[144.94028004191094,-37.786660946670644],[144.94020357192409,-37.786834386790602],[144.93992690249468,-37.78701516650203],[144.94007808177048,-37.787206586931404],[144.9403621218768,-37.787619156643352],[144.93932173174224,-37.788137596970294],[144.93859526237537,-37.788654716763403],[144.93839499196594,-37.788797266606551],[144.9381997521221,-37.788979936987104],[144.93783132248132,-37.788940607019569],[144.93704041246755,-37.788856027037404],[144.93628504250131,-37.788775276956322],[144.9360518416502,-37.788750356764609],[144.93497863246512,-37.788635637022722],[144.93461794181053,-37.788597087071693],[144.93435849218679,-37.788569386780466],[144.93380435203073,-37.788510146926562],[144.93316932217667,-37.788442297123439],[144.93300409235147,-37.788424547007232],[144.93223624209099,-37.788342506529411],[144.93217178168112,-37.788335636630023],[144.93208896240185,-37.788347166446307],[144.93202421183622,-37.788685146653705],[144.93199304209247,-37.788849806758428],[144.93151887175961,-37.788797136691933],[144.93120135234096,-37.788760366585365],[144.93107787171866,-37.788762066834934],[144.93047836214919,-37.78869398654016],[144.9300152518741,-37.788643496519107],[144.92968861186043,-37.788603206563607],[144.92957553193241,-37.788593267003442],[144.92949301179212,-37.788248186453821],[144.9294826425388,-37.788158466553234],[144.92917641224835,-37.788125456588041],[144.92749033195224,-37.787944047050303],[144.92733447245377,-37.787927266571003],[144.92667243205568,-37.787855986585122],[144.92664937230239,-37.787853506817065],[144.92524550224431,-37.787702406929057],[144.92430125250647,-37.787600007062373],[144.9233985723084,-37.787503547024883],[144.92254187237816,-37.78741130668125],[144.92246289249832,-37.787402816636543],[144.92130876217411,-37.78745849708519],[144.92048494237991,-37.786601476687096],[144.91925855247254,-37.78532566689492],[144.91855600254669,-37.784594996937905],[144.9182211124054,-37.784246326620838],[144.91761339223422,-37.78361404660231],[144.91732716203526,-37.78331623666655],[144.91697650196915,-37.782944366948918],[144.9159721324809,-37.781879587008326],[144.91511026184787,-37.780966346603201],[144.91482300217959,-37.780661436708208],[144.91474347253089,-37.780588707004966],[144.91453177195771,-37.780394846926058],[144.91358569235166,-37.779390256569158],[144.91165119194687,-37.780525306570617],[144.91085545169182,-37.780991986510571],[144.90823179254713,-37.782531267056314],[144.90822384245686,-37.782562327086708],[144.9081151822401,-37.782682636657924],[144.90799316227844,-37.782824637141985],[144.90789216199605,-37.782948646661133],[144.90777781185031,-37.783095126549604],[144.90760786227665,-37.783329746658112],[144.90746318231189,-37.783547656964657],[144.90731521181829,-37.783791646452748],[144.90717921227417,-37.784039667007789],[144.90705620236912,-37.784291646883311],[144.90694418245312,-37.784547676913263],[144.90684520248186,-37.784806676505113],[144.90676617229641,-37.785044676941588],[144.90669817252439,-37.785284676540002],[144.9066352123011,-37.78555066652887],[144.90655418246578,-37.786021696504996],[144.90646092206799,-37.786849646838007],[144.90633456234511,-37.78739918676763],[144.90496442222937,-37.787154656862462],[144.9049489119177,-37.787216486921977],[144.90487624180452,-37.787470706440111],[144.90483624251982,-37.787596716548485],[144.90481755217201,-37.787642626835556],[144.90470024207738,-37.787912726609555],[144.90456822206994,-37.788178727017282],[144.90441123249093,-37.788461736843132],[144.90425125242029,-37.788717716930414],[144.90401039253302,-37.788954206852033],[144.90354315180431,-37.789285406760335],[144.90271201253714,-37.789655006942567],[144.90270120221101,-37.78976774659214],[144.90271321178807,-37.789955756607668],[144.90278523241929,-37.790366776875047],[144.9028892222949,-37.790757766531165],[144.90307022204487,-37.791065756888123],[144.90332922251093,-37.791373766548155],[144.90358823196021,-37.791588776665279],[144.90384723242627,-37.79174278695465],[144.90413222205191,-37.791886786817237],[144.90458621173181,-37.79206177712777],[144.90494920207357,-37.792184786538755],[144.90563522209982,-37.792461786788571],[144.90629624201173,-37.792697786979112],[144.90682724246443,-37.792924786604551],[144.9072162219656,-37.793119776591361],[144.90759122188433,-37.793304776736214],[144.90799319192277,-37.793540777073574],[144.90839418189935,-37.793714776749283],[144.90900319205124,-37.79388978686589],[144.90949521190876,-37.794012776906513],[144.91003716192645,-37.79414077696714],[144.91055517184179,-37.794274766633031],[144.91094502181048,-37.794389766533797],[144.91121614234632,-37.794469756606304],[144.9118381017131,-37.794674756504214],[144.91248510251671,-37.794931757137832],[144.91283499182825,-37.795114007025319],[144.91292427179113,-37.795160976714158],[144.91347013217518,-37.795372746689978],[144.91392313191167,-37.795629747025032],[144.91464908205242,-37.796091746691168],[144.91520848184439,-37.796489906689985],[144.91528410202505,-37.796543736832625],[144.91569809242037,-37.796902746835258],[144.91604809222471,-37.797241746981584],[144.91632009221127,-37.797601756583752],[144.91648908238426,-37.798011746946869],[144.91649342214538,-37.798214266823528],[144.91650109196124,-37.798361747117127],[144.91638509250859,-37.798761736864698],[144.91621708239762,-37.799085766956473],[144.91588011175816,-37.799465756631349],[144.91547912178166,-37.799834756494796],[144.91507711221726,-37.800112776447463],[144.91480512211217,-37.800235786649672],[144.91442917177591,-37.80025578685229],[144.91407917197151,-37.800183777012052],[144.91376815186399,-37.799988807089228],[144.91348316223841,-37.799742797014368],[144.91312115195865,-37.799619806575727],[144.91277115215433,-37.799577797051683],[144.91242115234994,-37.799577797051683],[144.91207119207141,-37.799639806945102],[144.91170919167317,-37.799732827011233],[144.91135919186883,-37.799875826794711],[144.91098320200663,-37.80010182696018],[144.91068518231791,-37.800347836549122],[144.91041322185717,-37.800635846457077],[144.91020732170585,-37.800926716443513],[144.9101152318128,-37.801056836758406],[144.90960923237287,-37.801806856800852],[144.90927325167681,-37.802411886526166],[144.90891026223346,-37.803130866988923],[144.90861326213249,-37.803762896962681],[144.90843386228207,-37.804152257071536],[144.90822530221917,-37.804604887072934],[144.90768028175989,-37.805918907033387],[144.90758651201728,-37.806135207017597],[144.90720133238977,-37.807027926501114],[144.90696831210002,-37.807637946895312],[144.9067093125322,-37.808284946931991],[144.90643734219003,-37.808849976824028],[144.90637234189273,-37.809167966941679],[144.90632036177715,-37.809516976710768],[144.90629434207497,-37.809793996424993],[144.90622933189613,-37.810122976611773],[144.90611333244348,-37.810491976458728],[144.90593135173319,-37.81114998663277],[144.90572439246819,-37.811877996628063],[144.90556937199628,-37.812772027023428],[144.9054653920021,-37.813490016685591],[144.90545239248164,-37.814240026845468],[144.90545243200751,-37.815291026478619],[144.90547739169767,-37.815387026566327],[144.90560741205528,-37.815903026673169],[144.90584243199487,-37.816792026606663],[144.90624046202251,-37.818125026720708],[144.90649345186102,-37.819157026919186],[144.90660149224024,-37.82017402705371],[144.90663846240579,-37.821020016709035],[144.90652947250729,-37.821593016592601],[144.9061315125482,-37.822252026987144],[144.90556251246068,-37.82288803658178],[144.90542549243042,-37.823040046565048],[144.90423154248467,-37.824172046774457],[144.9034785521556,-37.824706066757855],[144.90264656218383,-37.825336066477988],[144.90166961197303,-37.826081076652756],[144.90054763235281,-37.82707006705332],[144.89964364241109,-37.827930096797736],[144.8988836721723,-37.828876096795447],[144.89837672231471,-37.829692096636258],[144.89770775231256,-37.830796096790209],[144.89739976222245,-37.831412097043277],[144.89723675213435,-37.832028086477415],[144.89714678226537,-37.832630096563378],[144.89713981223707,-37.83281509706157],[144.89711185217391,-37.83368209651298],[144.89712984183578,-37.834957096603517],[144.89709291209442,-37.836348096819748],[144.89712893184239,-37.837523067033509],[144.89721894213554,-37.838340086479725],[144.89743597241323,-37.839027086985276],[144.89765300179258,-37.839744086990379],[144.89812400197081,-37.840776056572807],[144.89836201240198,-37.841204056830342],[144.89916516196149,-37.84039595672072],[144.89927298225345,-37.840526986471509],[144.89937901220307,-37.840808006548102],[144.8993850021694,-37.840978996888367],[144.8993360125454,-37.841104006942437],[144.89950501170148,-37.8411699965244],[144.899605092109,-37.841290016964798],[144.89966900185155,-37.841417006455472],[144.89971102234557,-37.841542986948028],[144.89991899221536,-37.841809007013751],[144.90003900174739,-37.842009006843377],[144.90020501220852,-37.842173986466697],[144.90031301216356,-37.842364996486758],[144.90083989204402,-37.842599966757234],[144.90093997245154,-37.842701036858102],[144.90161701201987,-37.843649996435303],[144.90196701182424,-37.844151986520927],[144.90209593174563,-37.844397986946419],[144.90232799173637,-37.844636006745318],[144.90318801183989,-37.845562006777882],[144.90346500196782,-37.845827996740951],[144.90365699170701,-37.846027006746922],[144.90399498193435,-37.846351026597873],[144.90440400195124,-37.846773016737629],[144.90482499201923,-37.84716802699419],[144.90517799219666,-37.847544016722026],[144.90565300245424,-37.848012016788509],[144.90610698225274,-37.848452016852001],[144.90644997250297,-37.848774026419697],[144.90687998255476,-37.849241027029308],[144.90714497208879,-37.849488996609274],[144.90721297186087,-37.849525996801631],[144.90725896201016,-37.849508996945602],[144.90725312206251,-37.849466976797338],[144.90725375178152,-37.849466366771225],[144.90724688236455,-37.849438297051776],[144.90717805254917,-37.849378736465113],[144.90713013192035,-37.849338986820612],[144.90707942202255,-37.849289466783063],[144.90702401213917,-37.849243516794715],[144.90702181216508,-37.849213096963105],[144.90704159216929,-37.849163616563814],[144.90708763172594,-37.849107316573729],[144.90711970247986,-37.849050756923411],[144.90713687197993,-37.848985736963797],[144.90715812252625,-37.848911676433964],[144.90716787194202,-37.848721506913769],[144.90719600178687,-37.848406916843913],[144.90707086197619,-37.84818616687344],[144.90677163225672,-37.847662476859597],[144.90623976223489,-37.846753496604478],[144.90619032255489,-37.846689086796367],[144.90607713213419,-37.846499037101005],[144.90603304192169,-37.846358506826974],[144.90597463256361,-37.846271066483645],[144.90591252214659,-37.84620135659496],[144.90585411189016,-37.846113926705762],[144.90579321240207,-37.846001036860443],[144.90572570221187,-37.845895646980637],[144.90563328173883,-37.845764406863609],[144.90555264177237,-37.845633756708509],[144.90508863228371,-37.844855196782873],[144.90505620220364,-37.844755527108909],[144.90490187253616,-37.844510006707871],[144.9043977317105,-37.84323820651651],[144.90441014193618,-37.843137667068824],[144.90450433209031,-37.843050156932826],[144.90427956192818,-37.842884546488165],[144.9029709222734,-37.839464516480128],[144.90502066215606,-37.839057436528307],[144.90514794175377,-37.839090276876448],[144.90534039232867,-37.839110056561921],[144.90543309217773,-37.839100596990612],[144.90567805197591,-37.839096827066655],[144.90594350234574,-37.83912785692641],[144.90601016183143,-37.83923973642144],[144.90610279251027,-37.839280196683916],[144.9061915424671,-37.839288177069363],[144.90620511241772,-37.839368666895076],[144.90648045234053,-37.839376106685464],[144.9064959123466,-37.839622856588939],[144.90643914241386,-37.840950806884742],[144.90654962171911,-37.841123017084257],[144.90652337204818,-37.84113341707765],[144.90651678200729,-37.841157857056395],[144.90649098239231,-37.841339836779831],[144.90656904239725,-37.841343566862172],[144.90660193241476,-37.841327776793811],[144.90672107237759,-37.841547426428946],[144.90655856175283,-37.841610026770901],[144.90630023232825,-37.841694476813103],[144.90649128242961,-37.842023376538464],[144.90654211180333,-37.842003406804437],[144.9065498723491,-37.842017016728548],[144.90658389244717,-37.842018016988696],[144.90673285198594,-37.841966026852937],[144.90747088177224,-37.843205026797179],[144.90760589227119,-37.843261026964313],[144.90784588169097,-37.843201996979872],[144.90825191211451,-37.844525006554704],[144.90853390226536,-37.844981006827211],[144.90855690183159,-37.844990006678223],[144.90859088240387,-37.844991006898042],[144.90883291189758,-37.84487800679905],[144.91039986211226,-37.846942996601705],[144.91194388193105,-37.849005986413971],[144.91251885222192,-37.849771876447079],[144.9124811921503,-37.849789976412723],[144.91263845212222,-37.84999896660581],[144.91283280173559,-37.849905586406877],[144.91267554176366,-37.849696596658397],[144.91732283215558,-37.847463567029855],[144.91343478257048,-37.842294126580988],[144.9133700221233,-37.842209456601239],[144.91333179251976,-37.842082966476426],[144.91319401251474,-37.842283987101744],[144.91293902212806,-37.841943996991084],[144.91301099245371,-37.841909996616863],[144.91271301229079,-37.841513006611116],[144.91246798242403,-37.840992006837062],[144.91524100175599,-37.839505986845523],[144.91525600182464,-37.839447996716416],[144.91500499187302,-37.838721996765472],[144.91538601230079,-37.838634996441449],[144.91542102234234,-37.838623006956851],[144.91518789245811,-37.837922816967414],[144.91490064177299,-37.83702695646641],[144.91484862213147,-37.836946946513578],[144.91479665189732,-37.836866947115759],[144.91445165211584,-37.835769977075529],[144.91442464247018,-37.83567397653988],[144.91439263190335,-37.835578957071149],[144.91435565185637,-37.835484956984416],[144.91428463194831,-37.835333966602377],[144.91422860222741,-37.835233976861311],[144.91416461253485,-37.835131966412455],[144.91409260178497,-37.835031966464953],[144.91401562245338,-37.834934976673694],[144.91327160180245,-37.834037966711449],[144.91342801196814,-37.833969996970701],[144.91421601233876,-37.833716986825664],[144.91636498192437,-37.832797007119588],[144.91816702214726,-37.832240006859379],[144.91905101199754,-37.831469996996816],[144.91950099249638,-37.83118398684735],[144.91989500256309,-37.83064099653177],[144.92030300209382,-37.83007099650311],[144.92090401184984,-37.829951996546455],[144.92079834212467,-37.829614466985106],[144.92104975182662,-37.829454687052902],[144.92136566236252,-37.829268276813004],[144.9214807518218,-37.829203807035007],[144.92165292203083,-37.82911180679114],[144.92174252179393,-37.829066126623744],[144.92193422227552,-37.828971017048524],[144.92200467175334,-37.828936826926359],[144.92218301249011,-37.828856006429547],[144.92215300247142,-37.828759986963668],[144.9222780219078,-37.828703986430384],[144.92247001254526,-37.828667986875999],[144.92257002198585,-37.828626996448058],[144.92288800224023,-37.828500986801629],[144.9229990025683,-37.828469006662182],[144.9228906019647,-37.828299417039624],[144.92303857245827,-37.828251187003758],[144.92341729230057,-37.828113656656178],[144.923749222493,-37.828020416907613],[144.92442418246154,-37.827861016675548],[144.92539515168917,-37.827670856735672],[144.92673215205579,-37.82739707647827],[144.92923419188739,-37.826900367073634],[144.93010285198739,-37.826717406606321],[144.93078855221341,-37.826581546525659],[144.93147339185344,-37.826453146446539],[144.93214692170397,-37.826338857068535],[144.93271753247075,-37.826249766689692],[144.93331080234233,-37.826161016790628],[144.9343598423547,-37.826026186673623],[144.93536243228036,-37.825926656884448],[144.93679706245032,-37.825816586445463],[144.93727944248658,-37.825788056444743],[144.93750228216922,-37.825774916803304],[144.93795732197975,-37.825755826783301],[144.93885551239799,-37.825735496445802],[144.94009611185655,-37.825733606884981],[144.94034376210897,-37.825734496674414],[144.94052050204792,-37.825739736781912],[144.94144300177609,-37.825797996676286],[144.94229002235915,-37.825878006657611],[144.94296300244082,-37.825966986794079],[144.94458714210145,-37.826242737118037],[144.94500299200939,-37.826312996617126],[144.9457049921663,-37.826399996571922],[144.94612799176554,-37.826454996963449],[144.94654300174875,-37.826525006497683],[144.94687299247843,-37.826595986633542],[144.94687644200917,-37.826596806876431],[144.94702502245883,-37.826631986489232],[144.9472500019285,-37.826684997124609],[144.94750298188555,-37.826754996506892],[144.94759902167092,-37.826743987110497],[144.94773301168371,-37.826744986868221],[144.94786601175309,-37.826759986779912],[144.9483140123651,-37.826842997116074],[144.94858298233416,-37.826879996607126],[144.94904000203161,-37.826954996707549],[144.94961199171232,-37.827043007011873],[144.95013098168968,-37.827120996980383],[144.95124902219732,-37.827320007082356],[144.95186798208934,-37.827423996609561],[144.95219101177392,-37.827474996537219],[144.95249899198254,-37.827516996576392],[144.95297200169207,-37.827603996530804],[144.9534220118353,-37.827687986504813],[144.95353501181327,-37.827709006688721],[144.95398892244143,-37.827792546694106],[144.95471998219944,-37.827964086586682],[144.95499903216441,-37.828026816948899],[144.95517397187942,-37.828065777010927],[144.95552714183842,-37.828135526745186],[144.95580794172153,-37.828194206922838],[144.95610027237956,-37.82826205710608],[144.95647388170627,-37.828322536566617],[144.9570569018004,-37.82840051666836],[144.95718001231683,-37.828414007062229],[144.95727893210093,-37.828421526715815],[144.95778792203245,-37.828444527002688],[144.9582198616655,-37.828442526823778],[144.95846185253166,-37.828430636436664],[144.95908498240328,-37.82838599673611],[144.95952995209947,-37.828321646808376],[144.95979421220156,-37.828268626705686],[144.95985601180155,-37.828404996674251],[144.95995901173364,-37.828388986718466],[144.96032700209827,-37.828304996832834],[144.96079486176623,-37.828181536714069],[144.96104686255956,-37.828122516657636],[144.96112285194778,-37.828110526883663],[144.96138882244213,-37.828065516610316],[144.96163885233179,-37.82806953685558],[144.9617178016689,-37.828080516963162],[144.96185380211134,-37.828109526434893],[144.96198881171196,-37.82814752644871],[144.9620537823649,-37.828173516812086],[144.96228099235145,-37.828259986678113],[144.96273600251752,-37.828596006871912],[144.96278940197132,-37.828579376825218],[144.96319006226616,-37.828801356917069],[144.96384699214855,-37.829463986798949],[144.96421013250892,-37.829831486536023],[144.96487881235524,-37.830506516586709],[144.96515314167337,-37.830783686709772],[144.96584507171588,-37.831482177082009],[144.96735490255327,-37.831044866987853]]]},"properties":{"lga_name_2021":"Melbourne"}}]}